{"type": "FeatureCollection", "features": [ {"type": "Feature", "properties": {"norad_id": 32185, "name": "FENGYUN 1C DEB", "group": "fengyun-1c-debris", "lat": 18.147294175552133, "lon": 179.86022569640969, "alt_km": 456.58776634637707, "timestamp": "2025-12-03T20:47:58.510066+00:00", "meta": {"OBJECT_NAME": "FENGYUN 1C DEB", "OBJECT_ID": "1999-025CUF", "EPOCH": "2025-12-02T19:08:27.849984", "MEAN_MOTION": 15.02046295, "ECCENTRICITY": 0.01655781, "INCLINATION": 98.9029, "RA_OF_ASC_NODE": 181.5789, "ARG_OF_PERICENTER": 47.3778, "MEAN_ANOMALY": 314.1269, "EPHEMERIS_TYPE": 0, "CLASSIFICATION_TYPE": "U", "NORAD_CAT_ID": 32185, "ELEMENT_SET_NO": 999, "REV_AT_EPOCH": 94866, "BSTAR": 0.0032837724, "MEAN_MOTION_DOT": 0.00058333, "MEAN_MOTION_DDOT": 0}, "tle": {"line1": "1 32185U 99025CUF 25336.79754456  .00058333  00000+0  32838-2 0  9997", "line2": "2 32185  98.9029 181.5789 0165578  47.3778 314.1269 15.02046295948668"}}, "geometry": {"type": "Point", "coordinates": [179.86022569640969, 18.147294175552133]}}, {"type": "Feature", "properties": {"norad_id": 32186, "name": "FENGYUN 1C DEB", "group": "fengyun-1c-debris", "lat": 18.34509027714434, "lon": 25.0363603910993, "alt_km": 1158.1892286608036, "timestamp": "2025-12-03T20:47:58.510077+00:00", "meta": {"OBJECT_NAME": "FENGYUN 1C DEB", "OBJECT_ID": "1999-025CUG", "EPOCH": "2025-11-27T22:32:39.210144", "MEAN_MOTION": 13.76456233, "ECCENTRICITY": 0.0273811, "INCLINATION": 99.6093, "RA_OF_ASC_NODE": 22.268, "ARG_OF_PERICENTER": 239.107, "MEAN_ANOMALY": 302.2685, "EPHEMERIS_TYPE": 0, "CLASSIFICATION_TYPE": "U", "NORAD_CAT_ID": 32186, "ELEMENT_SET_NO": 999, "REV_AT_EPOCH": 62406, "BSTAR": 0.0013119, "MEAN_MOTION_DOT": 1.643e-05, "MEAN_MOTION_DDOT": 0}, "tle": {"line1": "1 32186U 99025CUG 25331.93934271  .00001643  00000+0  13119-2 0  9997", "line2": "2 32186  99.6093  22.2680 0273811 239.1070 302.2685 13.76456233624066"}}, "geometry": {"type": "Point", "coordinates": [25.0363603910993, 18.34509027714434]}}, {"type": "Feature", "properties": {"norad_id": 32187, "name": "FENGYUN 1C DEB", "group": "fengyun-1c-debris", "lat": -62.79805722656074, "lon": 76.23705828156018, "alt_km": 1206.7970992272312, "timestamp": "2025-12-03T20:47:58.510087+00:00", "meta": {"OBJECT_NAME": "FENGYUN 1C DEB", "OBJECT_ID": "1999-025CUH", "EPOCH": "2025-11-14T01:13:51.155328", "MEAN_MOTION": 13.50459969, "ECCENTRICITY": 0.02935721, "INCLINATION": 99.509, "RA_OF_ASC_NODE": 38.2489, "ARG_OF_PERICENTER": 217.6555, "MEAN_ANOMALY": 268.1397, "EPHEMERIS_TYPE": 0, "CLASSIFICATION_TYPE": "U", "NORAD_CAT_ID": 32187, "ELEMENT_SET_NO": 999, "REV_AT_EPOCH": 65871, "BSTAR": 0.0010895496, "MEAN_MOTION_DOT": 8.7e-06, "MEAN_MOTION_DDOT": 0}, "tle": {"line1": "1 32187U 99025CUH 25318.05128652  .00000870  00000+0  10895-2 0  9993", "line2": "2 32187  99.5090  38.2489 0293572 217.6555 268.1397 13.50459969658712"}}, "geometry": {"type": "Point", "coordinates": [76.23705828156018, -62.79805722656074]}}, {"type": "Feature", "properties": {"norad_id": 32191, "name": "FENGYUN 1C DEB", "group": "fengyun-1c-debris", "lat": -1.4859884977323643, "lon": -146.18954923575834, "alt_km": 753.3189550992265, "timestamp": "2025-12-03T20:47:58.510098+00:00", "meta": {"OBJECT_NAME": "FENGYUN 1C DEB", "OBJECT_ID": "1999-025CUM", "EPOCH": "2025-12-02T23:43:29.966592", "MEAN_MOTION": 14.25083181, "ECCENTRICITY": 0.00935094, "INCLINATION": 98.7086, "RA_OF_ASC_NODE": 33.1669, "ARG_OF_PERICENTER": 214.5855, "MEAN_ANOMALY": 144.9219, "EPHEMERIS_TYPE": 0, "CLASSIFICATION_TYPE": "U", "NORAD_CAT_ID": 32191, "ELEMENT_SET_NO": 999, "REV_AT_EPOCH": 64362, "BSTAR": 0.0019797477, "MEAN_MOTION_DOT": 4.816e-05, "MEAN_MOTION_DDOT": 0}, "tle": {"line1": "1 32191U 99025CUM 25336.98854128  .00004816  00000+0  19797-2 0  9998", "line2": "2 32191  98.7086  33.1669 0093509 214.5855 144.9219 14.25083181643624"}}, "geometry": {"type": "Point", "coordinates": [-146.18954923575834, -1.4859884977323643]}}, {"type": "Feature", "properties": {"norad_id": 32192, "name": "FENGYUN 1C DEB", "group": "fengyun-1c-debris", "lat": -60.65144644734594, "lon": 13.743432319078568, "alt_km": 884.7509314222125, "timestamp": "2025-12-03T20:47:58.510108+00:00", "meta": {"OBJECT_NAME": "FENGYUN 1C DEB", "OBJECT_ID": "1999-025CUN", "EPOCH": "2025-12-03T09:13:07.641408", "MEAN_MOTION": 13.82502199, "ECCENTRICITY": 0.0181293, "INCLINATION": 98.6532, "RA_OF_ASC_NODE": 209.013, "ARG_OF_PERICENTER": 187.8363, "MEAN_ANOMALY": 171.9952, "EPHEMERIS_TYPE": 0, "CLASSIFICATION_TYPE": "U", "NORAD_CAT_ID": 32192, "ELEMENT_SET_NO": 999, "REV_AT_EPOCH": 92583, "BSTAR": 0.00038302, "MEAN_MOTION_DOT": 4.32e-06, "MEAN_MOTION_DDOT": 0}, "tle": {"line1": "1 32192U 99025CUN 25337.38411622  .00000432  00000+0  38302-3 0  9996", "line2": "2 32192  98.6532 209.0130 0181293 187.8363 171.9952 13.82502199925838"}}, "geometry": {"type": "Point", "coordinates": [13.743432319078568, -60.65144644734594]}}, {"type": "Feature", "properties": {"norad_id": 32195, "name": "FENGYUN 1C DEB", "group": "fengyun-1c-debris", "lat": 34.955868644776686, "lon": -25.67541273823244, "alt_km": 844.9051188859949, "timestamp": "2025-12-03T20:47:58.510118+00:00", "meta": {"OBJECT_NAME": "FENGYUN 1C DEB", "OBJECT_ID": "1999-025CUR", "EPOCH": "2025-12-01T17:29:04.257600", "MEAN_MOTION": 14.08429834, "ECCENTRICITY": 0.00689475, "INCLINATION": 98.7739, "RA_OF_ASC_NODE": 338.4429, "ARG_OF_PERICENTER": 331.6193, "MEAN_ANOMALY": 28.1229, "EPHEMERIS_TYPE": 0, "CLASSIFICATION_TYPE": "U", "NORAD_CAT_ID": 32195, "ELEMENT_SET_NO": 999, "REV_AT_EPOCH": 63827, "BSTAR": 0.0006643102, "MEAN_MOTION_DOT": 1.12e-05, "MEAN_MOTION_DDOT": 0}, "tle": {"line1": "1 32195U 99025CUR 25335.72852150  .00001120  00000+0  66431-3 0  9999", "line2": "2 32195  98.7739 338.4429 0068947 331.6193  28.1229 14.08429834638271"}}, "geometry": {"type": "Point", "coordinates": [-25.67541273823244, 34.955868644776686]}}, {"type": "Feature", "properties": {"norad_id": 32197, "name": "FENGYUN 1C DEB", "group": "fengyun-1c-debris", "lat": 74.19631059751276, "lon": 100.32349057581578, "alt_km": 878.310849505936, "timestamp": "2025-12-03T20:47:58.510128+00:00", "meta": {"OBJECT_NAME": "FENGYUN 1C DEB", "OBJECT_ID": "1999-025CUT", "EPOCH": "2025-12-03T00:16:34.012128", "MEAN_MOTION": 14.32622811, "ECCENTRICITY": 0.01612306, "INCLINATION": 98.901, "RA_OF_ASC_NODE": 245.8253, "ARG_OF_PERICENTER": 258.5415, "MEAN_ANOMALY": 117.5288, "EPHEMERIS_TYPE": 0, "CLASSIFICATION_TYPE": "U", "NORAD_CAT_ID": 32197, "ELEMENT_SET_NO": 999, "REV_AT_EPOCH": 94284, "BSTAR": 0.00064150126, "MEAN_MOTION_DOT": 1.961e-05, "MEAN_MOTION_DDOT": 0}, "tle": {"line1": "1 32197U 99025CUT 25337.01150477  .00001961  00000+0  64150-3 0  9997", "line2": "2 32197  98.9010 245.8253 0161230 258.5415 117.5288 14.32622811942842"}}, "geometry": {"type": "Point", "coordinates": [100.32349057581578, 74.19631059751276]}}, {"type": "Feature", "properties": {"norad_id": 32198, "name": "FENGYUN 1C DEB", "group": "fengyun-1c-debris", "lat": 30.07615654844405, "lon": -49.71774590170731, "alt_km": 929.3018467475222, "timestamp": "2025-12-03T20:47:58.510138+00:00", "meta": {"OBJECT_NAME": "FENGYUN 1C DEB", "OBJECT_ID": "1999-025CUU", "EPOCH": "2025-11-26T15:55:14.672064", "MEAN_MOTION": 14.08693486, "ECCENTRICITY": 0.00946342, "INCLINATION": 98.344, "RA_OF_ASC_NODE": 118.7379, "ARG_OF_PERICENTER": 338.8779, "MEAN_ANOMALY": 20.8495, "EPHEMERIS_TYPE": 0, "CLASSIFICATION_TYPE": "U", "NORAD_CAT_ID": 32198, "ELEMENT_SET_NO": 999, "REV_AT_EPOCH": 56719, "BSTAR": 0.0016262032, "MEAN_MOTION_DOT": 2.879e-05, "MEAN_MOTION_DDOT": 0}, "tle": {"line1": "1 32198U 99025CUU 25330.66336426  .00002879  00000+0  16262-2 0  9991", "line2": "2 32198  98.3440 118.7379 0094634 338.8779  20.8495 14.08693486567195"}}, "geometry": {"type": "Point", "coordinates": [-49.71774590170731, 30.07615654844405]}}, {"type": "Feature", "properties": {"norad_id": 32200, "name": "FENGYUN 1C DEB", "group": "fengyun-1c-debris", "lat": -21.544322798587213, "lon": -156.54342837874756, "alt_km": 856.9649393258014, "timestamp": "2025-12-03T20:47:58.510148+00:00", "meta": {"OBJECT_NAME": "FENGYUN 1C DEB", "OBJECT_ID": "1999-025CUW", "EPOCH": "2025-12-01T10:10:20.091360", "MEAN_MOTION": 14.1562895, "ECCENTRICITY": 0.00392526, "INCLINATION": 98.7925, "RA_OF_ASC_NODE": 24.5506, "ARG_OF_PERICENTER": 323.0087, "MEAN_ANOMALY": 36.8381, "EPHEMERIS_TYPE": 0, "CLASSIFICATION_TYPE": "U", "NORAD_CAT_ID": 32200, "ELEMENT_SET_NO": 999, "REV_AT_EPOCH": 94203, "BSTAR": 0.0011757529, "MEAN_MOTION_DOT": 2.276e-05, "MEAN_MOTION_DDOT": 0}, "tle": {"line1": "1 32200U 99025CUW 25335.42384365  .00002276  00000+0  11758-2 0  9995", "line2": "2 32200  98.7925  24.5506 0039252 323.0087  36.8381 14.15628950942033"}}, "geometry": {"type": "Point", "coordinates": [-156.54342837874756, -21.544322798587213]}}, {"type": "Feature", "properties": {"norad_id": 32203, "name": "FENGYUN 1C DEB", "group": "fengyun-1c-debris", "lat": -17.40127748149948, "lon": -128.08169613692743, "alt_km": 529.2444120197279, "timestamp": "2025-12-03T20:47:58.510159+00:00", "meta": {"OBJECT_NAME": "FENGYUN 1C DEB", "OBJECT_ID": "1999-025CUZ", "EPOCH": "2025-12-03T03:43:09.125472", "MEAN_MOTION": 15.39646762, "ECCENTRICITY": 0.01471116, "INCLINATION": 97.0173, "RA_OF_ASC_NODE": 229.0233, "ARG_OF_PERICENTER": 126.0108, "MEAN_ANOMALY": 235.488, "EPHEMERIS_TYPE": 0, "CLASSIFICATION_TYPE": "U", "NORAD_CAT_ID": 32203, "ELEMENT_SET_NO": 999, "REV_AT_EPOCH": 74950, "BSTAR": 0.00079053984, "MEAN_MOTION_DOT": 0.00045869, "MEAN_MOTION_DDOT": 0}, "tle": {"line1": "1 32203U 99025CUZ 25337.15496673  .00045869  00000+0  79054-3 0  9995", "line2": "2 32203  97.0173 229.0233 0147111 126.0108 235.4880 15.39646762749507"}}, "geometry": {"type": "Point", "coordinates": [-128.08169613692743, -17.40127748149948]}}]}